{"_default": { "1339": {"norad_id": "98522", "name": "TAURUS 3", "tle1": "1 98522C 25248B   25306.26320194  .00027860  00000+0  12985-2 0    02", "tle2": "2 98522  45.4089 255.8588 0007455 201.5294 169.8646 15.19131730    15", "object_type": "PAYLOAD", "criticality_score": 7.0, "last_updated": "2026-07-18T17:04:38.830881+00:00", "maneuver_count": 0, "owner": "N/A"}, "1340": {"norad_id": "98521", "name": "TAURUS 4", "tle1": "1 98521C 25248B   25306.26320194  .00027860  00000+0  12985-2 0    01", "tle2": "2 98521  45.4089 255.8588 0007455 201.5294 169.8646 15.19131730    14", "object_type": "PAYLOAD", "criticality_score": 7.0, "last_updated": "2026-07-18T17:04:38.830881+00:00", "maneuver_count": 0, "owner": "N/A"}, "1341": {"norad_id": "98520", "name": "STARCLOUD-1", "tle1": "1 66303U 25248L   26198.62543461  .00002296  00000-0  11242-3 0  9998", "tle2": "2 66303  45.4027 316.9051 0006298 226.4272 133.6093 15.21579069 39177", "object_type": "PAYLOAD", "criticality_score": 7.0, "last_updated": "2026-07-18T17:04:38.830881+00:00", "maneuver_count": 0, "owner": "N/A"}, "1342": {"norad_id": "65489", "name": "OBJECT-B", "tle1": "1 65489U 25197B   26199.09112008  .00001904  00000-0  92281-4 0  9994", "tle2": "2 65489  97.4107  24.8148 0012121 256.7568 103.2315 15.19678152 47972", "object_type": "PAYLOAD", "criticality_score": 7.0, "last_updated": "2026-07-18T17:04:38.830881+00:00", "maneuver_count": 0, "owner": "N/A"}, "1343": {"norad_id": "63980", "name": "UNICORN-2O", "tle1": "1 63980U 25052BS  26046.23064614  .07374698  24226-5  45213-2 0  9996", "tle2": "2 63980  97.3693 306.5452 0009140 143.6049 216.5862 16.18030447 51696", "object_type": "PAYLOAD", "criticality_score": 7.0, "last_updated": "2026-07-18T17:04:38.830881+00:00", "maneuver_count": 0, "owner": "N/A"}, "1344": {"norad_id": "63981", "name": "UNICORN-2P", "tle1": "1 63981U 25052BT  26061.66207681  .09079400  24721-5  43819-2 0  9999", "tle2": "2 63981  97.3656 322.3272 0007474 166.9554 193.1930 16.21219791 54086", "object_type": "PAYLOAD", "criticality_score": 7.0, "last_updated": "2026-07-18T17:04:38.830881+00:00", "maneuver_count": 0, "owner": "N/A"}, "1345": {"norad_id": "64577", "name": "LYRA-3", "tle1": "1 64577U 25135BB  26199.24110105  .00000631  00000-0  10186-3 0  9995", "tle2": "2 64577  97.7751 303.0024 0019624 239.6620 120.2648 14.74553950 57849", "object_type": "PAYLOAD", "criticality_score": 7.0, "last_updated": "2026-07-18T17:04:38.830881+00:00", "maneuver_count": 0, "owner": "N/A"}, "1346": {"norad_id": "62609", "name": "BUZZZER-1", "tle1": "1 62609U 25009A   26199.15413819  .00001403  00000-0  64725-4 0  9994", "tle2": "2 62609  97.3918 276.8618 0006813 215.1142 144.9646 15.21855217 83400", "object_type": "PAYLOAD", "criticality_score": 7.0, "last_updated": "2026-07-18T17:04:38.830881+00:00", "maneuver_count": 0, "owner": "N/A"}, "1347": {"norad_id": "64691", "name": "LYRA-4", "tle1": "1 64691U 25140A   26198.86398176  .00000604  00000-0  99453-4 0  9996", "tle2": "2 64691  96.0081 311.3058 0014471 102.6938 257.5894 14.72567422 56572", "object_type": "PAYLOAD", "criticality_score": 7.0, "last_updated": "2026-07-18T17:04:38.830881+00:00", "maneuver_count": 0, "owner": "N/A"}, "1348": {"norad_id": "64051", "name": "OBJECT D", "tle1": "1 64051U 25103D   26199.24915001  .00001830  00000-0  95247-4 0  9999", "tle2": "2 64051  97.3789 269.6802 0006546 131.4724 228.7072 15.17238916 64716", "object_type": "PAYLOAD", "criticality_score": 7.0, "last_updated": "2026-07-18T17:04:38.830881+00:00", "maneuver_count": 0, "owner": "N/A"}, "1349": {"norad_id": "65259", "name": "OBJECT A", "tle1": "1 65259U 25180A   26199.00829292  .00009373  00000-0  39183-3 0  9991", "tle2": "2 65259  97.5233 327.9190 0012323 200.9191 159.1543 15.23758684 50486", "object_type": "PAYLOAD", "criticality_score": 7.0, "last_updated": "2026-07-18T17:04:38.830881+00:00", "maneuver_count": 0, "owner": "N/A"}, "1350": {"norad_id": "49052", "name": "MONOLITH", "tle1": "1 49052U 21068A   26198.98346976  .00002764  00000-0  17475-3 0  9991", "tle2": "2 49052  37.0231  79.3169 0001378 120.7028 239.3854 15.09415090271932", "object_type": "PAYLOAD", "criticality_score": 7.0, "last_updated": "2026-07-18T17:04:38.830881+00:00", "maneuver_count": 0, "owner": "N/A"}, "1351": {"norad_id": "63209", "name": "TIANYAN 23", "tle1": "1 63209U 25051B   26199.30515514  .00020278  00000-0  35619-3 0  9990", "tle2": "2 63209  97.4507 287.5597 0002906 346.3264  13.7908 15.50546305 75185", "object_type": "PAYLOAD", "criticality_score": 7.0, "last_updated": "2026-07-18T17:04:38.830881+00:00", "maneuver_count": 0, "owner": "N/A"}, "1352": {"norad_id": "64887", "name": "2025-155M", "tle1": "1 64887U 25155M   25317.92250675  .00044892  00000+0  16888-2 0  9994", "tle2": "2 64887  97.4276 282.0216 0006853 188.9633 171.1484 15.26972395 47917", "object_type": "PAYLOAD", "criticality_score": 7.0, "last_updated": "2026-07-18T17:04:38.830881+00:00", "maneuver_count": 0, "owner": "N/A"}, "1353": {"norad_id": "98494", "name": "COSMIC", "tle1": "1 66658U 25274J   26199.06115270  .00001343  00000-0  12969-3 0  9991", "tle2": "2 66658  97.7469 128.0861 0010777 275.0594  84.9396 14.94475035 34845", "object_type": "PAYLOAD", "criticality_score": 7.0, "last_updated": "2026-07-18T17:04:38.830881+00:00", "maneuver_count": 0, "owner": "N/A"}, "1354": {"norad_id": "98492", "name": "OBJECT H", "tle1": "1 66657U 25274H   26198.53599146  .00001001  00000-0  10006-3 0  9990", "tle2": "2 66657  97.7472 127.3952 0010377 274.3605  85.6429 14.93656671 34753", "object_type": "PAYLOAD", "criticality_score": 7.0, "last_updated": "2026-07-18T17:04:38.830881+00:00", "maneuver_count": 0, "owner": "N/A"}, "1355": {"norad_id": "98491", "name": "OBJECT G", "tle1": "1 66656U 25274G   26198.76413479  .00001010  00000-0  10129-3 0  9994", "tle2": "2 66656  97.7474 127.5635 0012012 254.9790 105.0100 14.93491953 34787", "object_type": "PAYLOAD", "criticality_score": 7.0, "last_updated": "2026-07-18T17:04:38.830881+00:00", "maneuver_count": 0, "owner": "N/A"}, "1356": {"norad_id": "98489", "name": "OBJECT L", "tle1": "1 66660U 25274L   26199.26890897  .00000918  00000-0  91265-4 0  9995", "tle2": "2 66660  97.7479 128.3016 0012276 276.2855  83.6967 14.94065937 34872", "object_type": "PAYLOAD", "criticality_score": 7.0, "last_updated": "2026-07-18T17:04:38.830881+00:00", "maneuver_count": 0, "owner": "N/A"}, "1357": {"norad_id": "98488", "name": "OBJECT E", "tle1": "1 66654U 25274E   26199.27234647  .00000988  00000-0  99946-4 0  9995", "tle2": "2 66654  97.7477 127.9821 0011465 251.4715 108.5259 14.93184311 34857", "object_type": "PAYLOAD", "criticality_score": 7.0, "last_updated": "2026-07-18T17:04:38.830881+00:00", "maneuver_count": 0, "owner": "N/A"}, "1358": {"norad_id": "98487", "name": "OBJECT K", "tle1": "1 66659U 25274K   26199.22343486  .00001148  00000-0  11315-3 0  9999", "tle2": "2 66659  97.7476 128.1961 0011630 276.0600  83.9295 14.93943365 34868", "object_type": "PAYLOAD", "criticality_score": 7.0, "last_updated": "2026-07-18T17:04:38.830881+00:00", "maneuver_count": 0, "owner": "N/A"}, "1359": {"norad_id": "98485", "name": "E3TESTER", "tle1": "1 66662U 25274N   26198.76741143  .00000875  00000-0  86701-4 0  9991", "tle2": "2 66662  97.7480 127.8779 0013238 278.9879  80.9843 14.94296682 34809", "object_type": "PAYLOAD", "criticality_score": 7.0, "last_updated": "2026-07-18T17:04:38.830881+00:00", "maneuver_count": 0, "owner": "N/A"}, "1360": {"norad_id": "66653", "name": "OBJECT D", "tle1": "1 66653U 25274D   26199.04367560  .00000508  00000-0  54445-4 0  9993", "tle2": "2 66653  97.7475 127.6607 0010985 250.9901 109.0129 14.92851922 34816", "object_type": "PAYLOAD", "criticality_score": 7.0, "last_updated": "2026-07-18T17:04:38.830881+00:00", "maneuver_count": 0, "owner": "N/A"}, "1361": {"norad_id": "98486", "name": "E3TESTER", "tle1": "1 66662U 25274N   26198.76741143  .00000875  00000-0  86701-4 0  9991", "tle2": "2 66662  97.7480 127.8779 0013238 278.9879  80.9843 14.94296682 34809", "object_type": "PAYLOAD", "criticality_score": 7.0, "last_updated": "2026-07-18T17:04:38.830881+00:00", "maneuver_count": 0, "owner": "N/A"}, "1362": {"norad_id": "98497", "name": "OBJECT M", "tle1": "1 66661U 25274M   26198.78717912  .00000378  00000-0  40696-4 0  9990", "tle2": "2 66661  97.7477 127.8472 0012931 279.3617  80.6141 14.94094019 34806", "object_type": "PAYLOAD", "criticality_score": 7.0, "last_updated": "2026-07-18T17:04:38.830881+00:00", "maneuver_count": 0, "owner": "N/A"}, "1363": {"norad_id": "98483", "name": "CAS500-3", "tle1": "1 66655U 25274F   26199.20807107  .00000575  00000-0  67897-4 0  9998", "tle2": "2 66655  97.7435 126.5537 0006031  29.7662 330.3897 14.88387681 34763", "object_type": "PAYLOAD", "criticality_score": 7.0, "last_updated": "2026-07-18T17:04:38.830881+00:00", "maneuver_count": 0, "owner": "N/A"}, "1364": {"norad_id": "98493", "name": "BEE-1000", "tle1": "1 66650U 25274A   26199.25083192  .00000878  00000-0  89740-4 0  9995", "tle2": "2 66650  97.7472 127.8508 0010102 249.0219 110.9920 14.93059821 34846", "object_type": "PAYLOAD", "criticality_score": 7.0, "last_updated": "2026-07-18T17:04:38.830881+00:00", "maneuver_count": 0, "owner": "N/A"}, "1365": {"norad_id": "98484", "name": "BEE-1000", "tle1": "1 66650U 25274A   26199.25083192  .00000878  00000-0  89740-4 0  9995", "tle2": "2 66650  97.7472 127.8508 0010102 249.0219 110.9920 14.93059821 34846", "object_type": "PAYLOAD", "criticality_score": 7.0, "last_updated": "2026-07-18T17:04:38.830881+00:00", "maneuver_count": 0, "owner": "N/A"}, "1366": {"norad_id": "98496", "name": "OBJECT M", "tle1": "1 66661U 25274M   26198.78717912  .00000378  00000-0  40696-4 0  9990", "tle2": "2 66661  97.7477 127.8472 0012931 279.3617  80.6141 14.94094019 34806", "object_type": "PAYLOAD", "criticality_score": 7.0, "last_updated": "2026-07-18T17:04:38.830881+00:00", "maneuver_count": 0, "owner": "N/A"}}}